STARLINK-35781          
1 67110U 25299J   25356.25002315 -.00241845  27746-4 -62556-3 0  9994
2 67110  42.9986 258.5579 0002756 268.4957  50.6352 15.93966323  2298
STARLINK-35875          
1 67111U 25299K   25356.25002315  .00067116  10126-4  18413-3 0  9997
2 67111  42.9986 258.5623 0001975 286.9162  30.5323 15.93794949  2236
STARLINK-35906          
1 67112U 25299L   25356.25002315  .00049058  93391-5  13635-3 0  9990
2 67112  42.9987 258.5547 0002491 281.2401  39.2249 15.93808873  2236
STARLINK-35789          
1 67113U 25299M   25356.25002315  .00092109  11610-4  25045-3 0  9997
2 67113  42.9987 258.5507 0001798 294.1981  27.7847 15.93769352  2232
STARLINK-36180          
1 67114U 25299N   25356.25002315  .00092317  11621-4  25125-3 0  9990
2 67114  42.9988 258.5464 0002563 255.9587  67.8478 15.93746956  2346
STARLINK-35892          
1 67115U 25299P   25356.25002315  .00157153  17664-4  42285-3 0  9990
2 67115  42.9988 258.5426 0002355 282.7602  42.5003 15.93746741  2234
STARLINK-35738          
1 67116U 25299Q   25356.25002315  .00157581  17715-4  42384-3 0  9993
2 67116  42.9988 258.5381 0002199 278.2904  48.8217 15.93753350  2236
STARLINK-35674          
1 67117U 25299R   25356.25002315  .00043099  91323-5  12059-3 0  9996
2 67117  42.9989 258.5339 0002051 267.0786  61.6517 15.93819166  2135
STARLINK-35701          
1 67118U 25299S   25356.25002315  .00039918  90317-5  11216-3 0  9998
2 67118  42.9990 258.5296 0002550 279.6777  50.7418 15.93825141  2299
STARLINK-36179          
1 67119U 25299T   25356.25002315  .00054024  95324-5  14933-3 0  9996
2 67119  42.9986 258.5230 0002464 280.8383  52.0780 15.93824503  2348
STARLINK-36217          
1 67120U 25299U   25356.25002315  .00045004  91965-5  12555-3 0  9991
2 67120  42.9990 258.5262 0002022 292.5735  39.2102 15.93827556  2347
STARLINK-36124          
1 67121U 25299V   25356.25002315  .00043787  91553-5  12228-3 0  9998
2 67121  42.9990 258.5147 0002297 282.1565  54.1093 15.93836523  2349
