CCSDS_OMM_VERS = 2.0
CREATION_DATE  = 
ORIGINATOR     = 

OBJECT_NAME    = STARLINK-35781
OBJECT_ID      = 2025-299J
CENTER_NAME    = EARTH
REF_FRAME      = TEME
TIME_SYSTEM    = UTC
MEAN_ELEMENT_THEORY = SGP/SGP4

EPOCH          = 2025-12-22T06:00:02.000160
MEAN_MOTION    = 15.93966323
ECCENTRICITY   = .00027566
INCLINATION    = 42.9986
RA_OF_ASC_NODE = 258.5579
ARG_OF_PERICENTER = 268.4957
MEAN_ANOMALY   = 50.6352

EPHEMERIS_TYPE = 0
CLASSIFICATION_TYPE = U
NORAD_CAT_ID   = 67110
ELEMENT_SET_NO = 999
REV_AT_EPOCH   = 229
BSTAR          = -.62555841E-3
MEAN_MOTION_DOT = -.241845E-2
MEAN_MOTION_DDOT = .27745925E-4

CCSDS_OMM_VERS = 2.0
CREATION_DATE  = 
ORIGINATOR     = 

OBJECT_NAME    = STARLINK-35875
OBJECT_ID      = 2025-299K
CENTER_NAME    = EARTH
REF_FRAME      = TEME
TIME_SYSTEM    = UTC
MEAN_ELEMENT_THEORY = SGP/SGP4

EPOCH          = 2025-12-22T06:00:02.000160
MEAN_MOTION    = 15.93794949
ECCENTRICITY   = .00019752
INCLINATION    = 42.9986
RA_OF_ASC_NODE = 258.5623
ARG_OF_PERICENTER = 286.9162
MEAN_ANOMALY   = 30.5323

EPHEMERIS_TYPE = 0
CLASSIFICATION_TYPE = U
NORAD_CAT_ID   = 67111
ELEMENT_SET_NO = 999
REV_AT_EPOCH   = 223
BSTAR          = .18413131E-3
MEAN_MOTION_DOT = .67116E-3
MEAN_MOTION_DDOT = .10126362E-4

CCSDS_OMM_VERS = 2.0
CREATION_DATE  = 
ORIGINATOR     = 

OBJECT_NAME    = STARLINK-35906
OBJECT_ID      = 2025-299L
CENTER_NAME    = EARTH
REF_FRAME      = TEME
TIME_SYSTEM    = UTC
MEAN_ELEMENT_THEORY = SGP/SGP4

EPOCH          = 2025-12-22T06:00:02.000160
MEAN_MOTION    = 15.93808873
ECCENTRICITY   = .00024917
INCLINATION    = 42.9987
RA_OF_ASC_NODE = 258.5547
ARG_OF_PERICENTER = 281.2401
MEAN_ANOMALY   = 39.2249

EPHEMERIS_TYPE = 0
CLASSIFICATION_TYPE = U
NORAD_CAT_ID   = 67112
ELEMENT_SET_NO = 999
REV_AT_EPOCH   = 223
BSTAR          = .13635393E-3
MEAN_MOTION_DOT = .49058E-3
MEAN_MOTION_DDOT = .9339112E-5

CCSDS_OMM_VERS = 2.0
CREATION_DATE  = 
ORIGINATOR     = 

OBJECT_NAME    = STARLINK-35789
OBJECT_ID      = 2025-299M
CENTER_NAME    = EARTH
REF_FRAME      = TEME
TIME_SYSTEM    = UTC
MEAN_ELEMENT_THEORY = SGP/SGP4

EPOCH          = 2025-12-22T06:00:02.000160
MEAN_MOTION    = 15.93769352
ECCENTRICITY   = .00017987
INCLINATION    = 42.9987
RA_OF_ASC_NODE = 258.5507
ARG_OF_PERICENTER = 294.1981
MEAN_ANOMALY   = 27.7847

EPHEMERIS_TYPE = 0
CLASSIFICATION_TYPE = U
NORAD_CAT_ID   = 67113
ELEMENT_SET_NO = 999
REV_AT_EPOCH   = 223
BSTAR          = .25044766E-3
MEAN_MOTION_DOT = .92109E-3
MEAN_MOTION_DDOT = .11609808E-4

CCSDS_OMM_VERS = 2.0
CREATION_DATE  = 
ORIGINATOR     = 

OBJECT_NAME    = STARLINK-36180
OBJECT_ID      = 2025-299N
CENTER_NAME    = EARTH
REF_FRAME      = TEME
TIME_SYSTEM    = UTC
MEAN_ELEMENT_THEORY = SGP/SGP4

EPOCH          = 2025-12-22T06:00:02.000160
MEAN_MOTION    = 15.93746956
ECCENTRICITY   = .00025635
INCLINATION    = 42.9988
RA_OF_ASC_NODE = 258.5464
ARG_OF_PERICENTER = 255.9587
MEAN_ANOMALY   = 67.8478

EPHEMERIS_TYPE = 0
CLASSIFICATION_TYPE = U
NORAD_CAT_ID   = 67114
ELEMENT_SET_NO = 999
REV_AT_EPOCH   = 234
BSTAR          = .25125275E-3
MEAN_MOTION_DOT = .92317E-3
MEAN_MOTION_DDOT = .11621199E-4

CCSDS_OMM_VERS = 2.0
CREATION_DATE  = 
ORIGINATOR     = 

OBJECT_NAME    = STARLINK-35892
OBJECT_ID      = 2025-299P
CENTER_NAME    = EARTH
REF_FRAME      = TEME
TIME_SYSTEM    = UTC
MEAN_ELEMENT_THEORY = SGP/SGP4

EPOCH          = 2025-12-22T06:00:02.000160
MEAN_MOTION    = 15.93746741
ECCENTRICITY   = .00023558
INCLINATION    = 42.9988
RA_OF_ASC_NODE = 258.5426
ARG_OF_PERICENTER = 282.7602
MEAN_ANOMALY   = 42.5003

EPHEMERIS_TYPE = 0
CLASSIFICATION_TYPE = U
NORAD_CAT_ID   = 67115
ELEMENT_SET_NO = 999
REV_AT_EPOCH   = 223
BSTAR          = .4228471E-3
MEAN_MOTION_DOT = .157153E-2
MEAN_MOTION_DDOT = .17663791E-4

CCSDS_OMM_VERS = 2.0
CREATION_DATE  = 
ORIGINATOR     = 

OBJECT_NAME    = STARLINK-35738
OBJECT_ID      = 2025-299Q
CENTER_NAME    = EARTH
REF_FRAME      = TEME
TIME_SYSTEM    = UTC
MEAN_ELEMENT_THEORY = SGP/SGP4

EPOCH          = 2025-12-22T06:00:02.000160
MEAN_MOTION    = 15.93753350
ECCENTRICITY   = .0002199
INCLINATION    = 42.9988
RA_OF_ASC_NODE = 258.5381
ARG_OF_PERICENTER = 278.2904
MEAN_ANOMALY   = 48.8217

EPHEMERIS_TYPE = 0
CLASSIFICATION_TYPE = U
NORAD_CAT_ID   = 67116
ELEMENT_SET_NO = 999
REV_AT_EPOCH   = 223
BSTAR          = .42384461E-3
MEAN_MOTION_DOT = .157581E-2
MEAN_MOTION_DDOT = .17715165E-4

CCSDS_OMM_VERS = 2.0
CREATION_DATE  = 
ORIGINATOR     = 

OBJECT_NAME    = STARLINK-35674
OBJECT_ID      = 2025-299R
CENTER_NAME    = EARTH
REF_FRAME      = TEME
TIME_SYSTEM    = UTC
MEAN_ELEMENT_THEORY = SGP/SGP4

EPOCH          = 2025-12-22T06:00:02.000160
MEAN_MOTION    = 15.93819166
ECCENTRICITY   = .00020515
INCLINATION    = 42.9989
RA_OF_ASC_NODE = 258.5339
ARG_OF_PERICENTER = 267.0786
MEAN_ANOMALY   = 61.6517

EPHEMERIS_TYPE = 0
CLASSIFICATION_TYPE = U
NORAD_CAT_ID   = 67117
ELEMENT_SET_NO = 999
REV_AT_EPOCH   = 213
BSTAR          = .12058767E-3
MEAN_MOTION_DOT = .43099E-3
MEAN_MOTION_DDOT = .9132263E-5

CCSDS_OMM_VERS = 2.0
CREATION_DATE  = 
ORIGINATOR     = 

OBJECT_NAME    = STARLINK-35701
OBJECT_ID      = 2025-299S
CENTER_NAME    = EARTH
REF_FRAME      = TEME
TIME_SYSTEM    = UTC
MEAN_ELEMENT_THEORY = SGP/SGP4

EPOCH          = 2025-12-22T06:00:02.000160
MEAN_MOTION    = 15.93825141
ECCENTRICITY   = .00025509
INCLINATION    = 42.9990
RA_OF_ASC_NODE = 258.5296
ARG_OF_PERICENTER = 279.6777
MEAN_ANOMALY   = 50.7418

EPHEMERIS_TYPE = 0
CLASSIFICATION_TYPE = U
NORAD_CAT_ID   = 67118
ELEMENT_SET_NO = 999
REV_AT_EPOCH   = 229
BSTAR          = .11215507E-3
MEAN_MOTION_DOT = .39918E-3
MEAN_MOTION_DDOT = .9031669E-5

CCSDS_OMM_VERS = 2.0
CREATION_DATE  = 
ORIGINATOR     = 

OBJECT_NAME    = STARLINK-36179
OBJECT_ID      = 2025-299T
CENTER_NAME    = EARTH
REF_FRAME      = TEME
TIME_SYSTEM    = UTC
MEAN_ELEMENT_THEORY = SGP/SGP4

EPOCH          = 2025-12-22T06:00:02.000160
MEAN_MOTION    = 15.93824503
ECCENTRICITY   = .00024647
INCLINATION    = 42.9986
RA_OF_ASC_NODE = 258.5230
ARG_OF_PERICENTER = 280.8383
MEAN_ANOMALY   = 52.0780

EPHEMERIS_TYPE = 0
CLASSIFICATION_TYPE = U
NORAD_CAT_ID   = 67119
ELEMENT_SET_NO = 999
REV_AT_EPOCH   = 234
BSTAR          = .14932725E-3
MEAN_MOTION_DOT = .54024E-3
MEAN_MOTION_DDOT = .9532377E-5

CCSDS_OMM_VERS = 2.0
CREATION_DATE  = 
ORIGINATOR     = 

OBJECT_NAME    = STARLINK-36217
OBJECT_ID      = 2025-299U
CENTER_NAME    = EARTH
REF_FRAME      = TEME
TIME_SYSTEM    = UTC
MEAN_ELEMENT_THEORY = SGP/SGP4

EPOCH          = 2025-12-22T06:00:02.000160
MEAN_MOTION    = 15.93827556
ECCENTRICITY   = .00020223
INCLINATION    = 42.9990
RA_OF_ASC_NODE = 258.5262
ARG_OF_PERICENTER = 292.5735
MEAN_ANOMALY   = 39.2102

EPHEMERIS_TYPE = 0
CLASSIFICATION_TYPE = U
NORAD_CAT_ID   = 67120
ELEMENT_SET_NO = 999
REV_AT_EPOCH   = 234
BSTAR          = .12555249E-3
MEAN_MOTION_DOT = .45004E-3
MEAN_MOTION_DDOT = .9196535E-5

CCSDS_OMM_VERS = 2.0
CREATION_DATE  = 
ORIGINATOR     = 

OBJECT_NAME    = STARLINK-36124
OBJECT_ID      = 2025-299V
CENTER_NAME    = EARTH
REF_FRAME      = TEME
TIME_SYSTEM    = UTC
MEAN_ELEMENT_THEORY = SGP/SGP4

EPOCH          = 2025-12-22T06:00:02.000160
MEAN_MOTION    = 15.93836523
ECCENTRICITY   = .00022972
INCLINATION    = 42.9990
RA_OF_ASC_NODE = 258.5147
ARG_OF_PERICENTER = 282.1565
MEAN_ANOMALY   = 54.1093

EPHEMERIS_TYPE = 0
CLASSIFICATION_TYPE = U
NORAD_CAT_ID   = 67121
ELEMENT_SET_NO = 999
REV_AT_EPOCH   = 234
BSTAR          = .12228131E-3
MEAN_MOTION_DOT = .43787E-3
MEAN_MOTION_DDOT = .9155327E-5

